NORAD_CAT_ID,OBJECT_NAME,OBJECT_TYPE,EPOCH,MEAN_MOTION,ECCENTRICITY,INCLINATION,RA_OF_ASC_NODE,ARG_OF_PERICENTER,MEAN_ANOMALY,BSTAR,MEAN_MOTION_DOT,MEAN_MOTION_DDOT,TLE_LINE0,TLE_LINE1,TLE_LINE2,SEMIMAJOR_AXIS,PERIOD,APOGEE,PERIGEE,DECAYED
55403.0,STARLINK-5597,PAYLOAD,2023-06-01 01:00:42,15.69921421,0.0003076,69.9983,111.3016,255.4328,104.6526,-1.5922e-05,-2.126e-05,0.0,0 STARLINK-5597,1 55403U 23014N   23152.04216367 -.00002126  00000-0 -15922-4 0  9995,2 55403  69.9983 111.3016 0003076 255.4328 104.6526 15.69921421 19094,6737.259,91.724,361.196,357.051,0.0
55403.0,STARLINK-5597,PAYLOAD,2023-06-01 07:07:43,15.6992458,0.0003571,69.9978,110.583,272.513,87.5657,-8.6415e-06,-1.252e-05,0.0,0 STARLINK-5597,1 55403U 23014N   23152.29702567 -.00001252  00000-0 -86415-5 0  9999,2 55403  69.9978 110.5830 0003571 272.5130  87.5657 15.69924580 20077,6737.25,91.724,361.521,356.709,0.0
55403.0,STARLINK-5597,PAYLOAD,2023-06-02 07:35:45,15.69924161,0.0003588,69.9975,107.7207,271.1953,88.8832,3.1674e-06,1.68e-06,0.0,0 STARLINK-5597,1 55403U 23014N   23153.31649353  .00000168  00000-0  31674-5 0  9996,2 55403  69.9975 107.7207 0003588 271.1953  88.8832 15.69924161 19292,6737.251,91.724,361.533,356.699,0.0
55403.0,STARLINK-5597,PAYLOAD,2023-06-02 21:21:31,15.6990489,0.0002945,69.9974,106.109,268.5065,91.5793,3.3495e-05,3.813e-05,0.0,0 STARLINK-5597,1 55403U 23014N   23153.88994940  .00003813  00000-0  33495-4 0  9995,2 55403  69.9974 106.1090 0002945 268.5065  91.5793 15.69904890 20324,6737.306,91.725,361.155,357.187,0.0
55403.0,STARLINK-5597,PAYLOAD,2023-06-03 03:28:31,15.69909876,0.000303,69.9978,105.3935,257.3386,102.7471,3.9066e-05,4.484e-05,0.0,0 STARLINK-5597,1 55403U 23014N   23154.14481388  .00004484  00000-0  39066-4 0  9997,2 55403  69.9978 105.3935 0003030 257.3386 102.7471 15.69909876 19421,6737.292,91.725,361.198,357.115,0.0
55403.0,STARLINK-5597,PAYLOAD,2023-06-03 06:32:01,15.69920272,0.0002982,69.9982,105.0355,255.0869,104.9997,2.2599e-05,2.505e-05,0.0,0 STARLINK-5597,1 55403U 23014N   23154.27224455  .00002505  00000-0  22599-4 0  9996,2 55403  69.9982 105.0355 0002982 255.0869 104.9997 15.69920272 20382,6737.262,91.724,361.136,357.118,0.0
55403.0,STARLINK-5597,PAYLOAD,2023-06-03 21:49:33,15.69926964,0.0003423,69.997,103.2421,246.0724,114.0114,4.438e-06,3.21e-06,0.0,0 STARLINK-5597,1 55403U 23014N   23154.90941058  .00000321  00000-0  44380-5 0  9998,2 55403  69.9970 103.2421 0003423 246.0724 114.0114 15.69926964 20482,6737.243,91.724,361.414,356.802,0.0
55403.0,STARLINK-5597,PAYLOAD,2023-06-04 03:56:33,15.69929697,0.0003319,69.9983,102.525,251.3896,108.694,1.1633e-05,1.187e-05,0.0,0 STARLINK-5597,1 55403U 23014N   23155.16427485  .00001187  00000-0  11633-4 0  9995,2 55403  69.9983 102.5250 0003319 251.3896 108.6940 15.69929697 20528,6737.235,91.724,361.336,356.864,0.0
55403.0,STARLINK-5597,PAYLOAD,2023-06-04 22:17:35,15.6992041,0.0003132,69.9999,100.3767,247.3863,112.7002,1.0373e-05,1.035e-05,0.0,0 STARLINK-5597,1 55403U 23014N   23155.92888073  .00001035  00000-0  10373-4 0  9995,2 55403  69.9999 100.3767 0003132 247.3863 112.7002 15.69920410 20648,6737.262,91.724,361.237,357.017,0.0
55403.0,STARLINK-5597,PAYLOAD,2023-06-05 04:24:35,15.69930251,0.0003129,69.9992,99.6616,250.3216,109.7642,1.5373e-05,1.637e-05,0.0,0 STARLINK-5597,1 55403U 23014N   23156.18374048  .00001637  00000-0  15373-4 0  9999,2 55403  69.9992  99.6616 0003129 250.3216 109.7642 15.69930251 19745,6737.234,91.724,361.207,356.99,0.0
55403.0,STARLINK-5597,PAYLOAD,2023-06-05 05:56:20,15.69924652,0.0003546,69.9968,99.479,259.8458,100.2338,2.7611e-06,1.19e-06,0.0,0 STARLINK-5597,1 55403U 23014N   23156.24746267  .00000119  00000-0  27611-5 0  9995,2 55403  69.9968  99.4790 0003546 259.8458 100.2338 15.69924652 19751,6737.25,91.724,361.504,356.726,0.0
55403.0,STARLINK-5597,PAYLOAD,2023-06-05 13:35:06,15.69919023,0.0003296,69.9979,98.582,264.0132,96.0688,2.7345e-06,1.16e-06,0.0,0 STARLINK-5597,1 55403U 23014N   23156.56605140  .00000116  00000-0  27345-5 0  9995,2 55403  69.9979  98.5820 0003296 264.0132  96.0688 15.69919023 20743,6737.266,91.724,361.351,356.91,0.0
55403.0,STARLINK-5597,PAYLOAD,2023-06-05 19:42:07,15.69928069,0.0003499,69.9972,97.8655,262.2494,97.8305,-5.2005e-06,-8.38e-06,0.0,0 STARLINK-5597,1 55403U 23014N   23156.82091488 -.00000838  00000-0 -52005-5 0  9992,2 55403  69.9972  97.8655 0003499 262.2494  97.8305 15.69928069 20789,6737.24,91.724,361.462,356.747,0.0
55403.0,STARLINK-5597,PAYLOAD,2023-06-05 22:45:37,15.69928785,0.0003367,69.9986,97.5076,260.0274,100.0542,3.3483e-06,1.9e-06,0.0,0 STARLINK-5597,1 55403U 23014N   23156.94834563  .00000190  00000-0  33483-5 0  9992,2 55403  69.9986  97.5076 0003367 260.0274 100.0542 15.69928785 19866,6737.238,91.724,361.371,356.834,0.0
55403.0,STARLINK-5597,PAYLOAD,2023-06-06 04:52:37,15.6993265,0.0003349,69.9989,96.7912,259.3824,100.6994,8.7325e-06,8.38e-06,0.0,0 STARLINK-5597,1 55403U 23014N   23157.20320867  .00000838  00000-0  87325-5 0  9992,2 55403  69.9989  96.7912 0003349 259.3824 100.6994 15.69932650 20844,6737.227,91.724,361.348,356.835,0.0
55403.0,STARLINK-5597,PAYLOAD,2023-06-06 23:13:39,15.69926663,0.0003374,69.9982,94.6422,258.2876,101.7941,-7.4583e-06,-1.11e-05,0.0,0 STARLINK-5597,1 55403U 23014N   23157.96781765 -.00001110  00000-0 -74583-5 0  9991,2 55403  69.9982  94.6422 0003374 258.2876 101.7941 15.69926663 20024,6737.244,91.724,361.382,356.836,0.0
55403.0,STARLINK-5597,PAYLOAD,2023-06-07 20:38:11,15.69922481,0.0003153,69.9977,92.1326,267.4172,92.6663,6.6715e-06,5.89e-06,0.0,0 STARLINK-5597,1 55403U 23014N   23158.85985286  .00000589  00000-0  66715-5 0  9999,2 55403  69.9977  92.1326 0003153 267.4172  92.6663 15.69922481 21103,6737.256,91.724,361.245,356.997,0.0
55403.0,STARLINK-5597,PAYLOAD,2023-06-08 05:48:41,15.69929382,0.0003143,69.9976,91.0569,264.8402,95.2435,7.9559e-06,7.44e-06,0.0,0 STARLINK-5597,1 55403U 23014N   23159.24214738  .00000744  00000-0  79559-5 0  9993,2 55403  69.9976  91.0569 0003143 264.8402  95.2435 15.69929382 20220,6737.236,91.724,361.219,356.984,0.0
55403.0,STARLINK-5597,PAYLOAD,2023-06-08 22:37:58,15.69923417,0.0003199,69.9974,89.0862,262.8107,97.2725,1.2328e-05,1.27e-05,0.0,0 STARLINK-5597,1 55403U 23014N   23159.94303388  .00001270  00000-0  12328-4 0  9995,2 55403  69.9974  89.0862 0003199 262.8107  97.2725 15.69923417 20331,6737.253,91.724,361.273,356.963,0.0
55403.0,STARLINK-5597,PAYLOAD,2023-06-09 12:23:44,15.69911266,0.0003228,69.9973,87.4727,273.6237,86.4589,2.2576e-05,2.501e-05,0.0,0 STARLINK-5597,1 55403U 23014N   23160.51649052  .00002501  00000-0  22576-4 0  9995,2 55403  69.9973  87.4727 0003228 273.6237  86.4589 15.69911266 21360,6737.288,91.725,361.328,356.978,0.0
55403.0,STARLINK-5597,PAYLOAD,2023-06-10 02:09:30,15.69929737,0.0003127,69.9986,85.8648,265.2254,94.8585,-9.2698e-07,-3.24e-06,0.0,0 STARLINK-5597,1 55403U 23014N   23161.08993531 -.00000324  00000-0 -92698-6 0  9999,2 55403  69.9986  85.8648 0003127 265.2254  94.8585 15.69929737 20519,6737.235,91.724,361.207,356.993,0.0
55403.0,STARLINK-5597,PAYLOAD,2023-06-10 05:13:00,15.69930974,0.0003055,69.9985,85.5056,265.2751,94.8096,2.7132e-06,1.14e-06,0.0,0 STARLINK-5597,1 55403U 23014N   23161.21736738  .00000114  00000-0  27132-5 0  9993,2 55403  69.9985  85.5056 0003055 265.2751  94.8096 15.69930974 21478,6737.231,91.724,361.155,357.038,0.0
55403.0,STARLINK-5597,PAYLOAD,2023-06-10 17:27:02,15.69919764,0.0003379,69.9977,84.0727,265.5414,94.5396,2.6848e-06,1.1e-06,0.0,0 STARLINK-5597,1 55403U 23014N   23161.72710671  .00000110  00000-0  26848-5 0  9996,2 55403  69.9977  84.0727 0003379 265.5414  94.5396 15.69919764 20615,6737.264,91.724,361.405,356.852,0.0
55403.0,STARLINK-5597,PAYLOAD,2023-06-11 11:48:03,15.69923593,0.0003492,69.9982,81.9237,264.8816,95.1981,1.1461e-05,1.165e-05,0.0,0 STARLINK-5597,1 55403U 23014N   23162.49170325  .00001165  00000-0  11461-4 0  9992,2 55403  69.9982  81.9237 0003492 264.8816  95.1981 15.69923593 21676,6737.253,91.724,361.47,356.765,0.0
55403.0,STARLINK-5597,PAYLOAD,2023-06-11 17:55:04,15.69921728,0.0003033,69.9992,81.2076,263.8235,96.2615,8.4464e-06,8.03e-06,0.0,0 STARLINK-5597,1 55403U 23014N   23162.74657418  .00000803  00000-0  84464-5 0  9995,2 55403  69.9992  81.2076 0003033 263.8235  96.2615 15.69921728 21715,6737.258,91.724,361.166,357.08,0.0
55403.0,STARLINK-5597,PAYLOAD,2023-06-11 20:58:34,15.69923214,0.0002918,69.9991,80.8492,264.2783,95.808,6.1896e-06,5.32e-06,0.0,0 STARLINK-5597,1 55403U 23014N   23162.87400690  .00000532  00000-0  61896-5 0  9990,2 55403  69.9991  80.8492 0002918 264.2783  95.8080 15.69923214 21730,6737.254,91.724,361.085,357.153,0.0
55403.0,STARLINK-5597,PAYLOAD,2023-06-12 04:37:21,15.69905963,0.0002704,69.9989,79.9526,274.3462,85.7424,-1.8073e-05,-2.383e-05,0.0,0 STARLINK-5597,1 55403U 23014N   23163.19260489 -.00002383  00000-0 -18073-4 0  9992,2 55403  69.9989  79.9526 0002704 274.3462  85.7424 15.69905963 20845,6737.303,91.725,360.99,357.346,0.0
55403.0,STARLINK-5597,PAYLOAD,2023-06-13 00:30:06,15.6991595,0.0003569,69.9973,77.6215,257.6025,102.4771,6.5611e-06,5.76e-06,0.0,0 STARLINK-5597,1 55403U 23014N   23164.02091007  .00000576  00000-0  65611-5 0  9994,2 55403  69.9973  77.6215 0003569 257.6025 102.4771 15.69915950 20970,6737.274,91.725,361.544,356.735,0.0
55403.0,STARLINK-5597,PAYLOAD,2023-06-13 03:33:36,15.69925043,0.0003183,69.9977,77.2644,256.3186,103.7655,1.763e-05,1.908e-05,0.0,0 STARLINK-5597,1 55403U 23014N   23164.14833692  .00001908  00000-0  17630-4 0  9998,2 55403  69.9977  77.2644 0003183 256.3186 103.7655 15.69925043 20993,6737.248,91.724,361.258,356.969,0.0
55403.0,STARLINK-5597,PAYLOAD,2023-06-14 00:58:08,15.69926045,0.0003525,69.9981,74.7577,268.0071,92.0721,5.0133e-06,3.9e-06,0.0,0 STARLINK-5597,1 55403U 23014N   23165.04037235  .00000390  00000-0  50133-5 0  9997,2 55403  69.9981  74.7577 0003525 268.0071  92.0721 15.69926045 21132,6737.246,91.724,361.485,356.736,0.0
